KUIPER-00252            
1 67157U 25301AA  26013.15935107  .00017903  00000+0  52816-3 0  9994
2 67157  51.8668 333.8125 0009879 203.9985 156.0542 15.35018392  5191
KUIPER-00261            
1 67158U 25301AB  26013.26792704  .00028090  00000+0  78983-3 0  9993
2 67158  51.8709 333.0519 0006802 180.2231 179.8754 15.36265263  5214
KUIPER-00265            
1 67159U 25301AC  26013.25002315 -.02093693  00000+0 -10340+0 0  9999
2 67159  51.8822 333.5402 0000744 191.5030 254.4660 15.21111069  5234
GALILEO 33              
1 67160U 25302A   25352.14605887 -.00000007  00000+0  00000+0 0  9994
2 67160  54.2406 107.2544 0008423 237.6458 122.2317  1.72906186    28
GALILEO B               
1 67161U 25302B   26011.42644868 -.00000033  00000+0  00000+0 0  9990
2 67161  54.2421 106.5099 0005083 260.1895  99.7577  1.72972425   450
GALILEO 33 (139)        
1 67162U 25302C   25356.18244914  .00000006  00000+0  00000+0 0  9992
2 67162  54.2447 107.1379 0000312 196.8367 159.4994  1.73130437   127
STARLINK-35755          
1 67163U 25303A   25351.60835648 -.00002699  85337-5  00000+0 0  9999
2 67163  43.0100  69.0834 0011500 323.6500   9.4800 16.01284782    10
STARLINK-36201          
1 67164U 25303B   25351.60835648 -.00002699  85337-5  00000+0 0  9990
2 67164  43.0100  69.0834 0011500 323.6500   9.4800 16.01284782    11
STARLINK-36186          
1 67165U 25303C   25351.60835648 -.00002699  85337-5  00000+0 0  9991
2 67165  43.0100  69.0834 0011500 323.6500   9.4800 16.01284782    12
STARLINK-36174          
1 67166U 25303D   25351.60835648 -.00002699  85337-5  00000+0 0  9992
2 67166  43.0100  69.0834 0011500 323.6500   9.4800 16.01284782    13
STARLINK-36198          
1 67167U 25303E   25351.60835648 -.00002699  85337-5  00000+0 0  9993
2 67167  43.0100  69.0834 0011500 323.6500   9.4800 16.01284782    14
STARLINK-35903          
1 67168U 25303F   25351.60835648 -.00002699  85337-5  00000+0 0  9994
2 67168  43.0100  69.0834 0011500 323.6500   9.4800 16.01284782    15
